[{"OBJECT_NAME":"STARLINK-35106","OBJECT_ID":"2025-216F","EPOCH":"2026-03-09T21:27:01.601856","MEAN_MOTION":15.30208382,"ECCENTRICITY":9.069e-5,"INCLINATION":53.159,"RA_OF_ASC_NODE":332.0289,"ARG_OF_PERICENTER":98.7136,"MEAN_ANOMALY":261.3968,"EPHEMERIS_TYPE":0,"CLASSIFICATION_TYPE":"U","NORAD_CAT_ID":65739,"ELEMENT_SET_NO":999,"REV_AT_EPOCH":2654,"BSTAR":0.00078986213,"MEAN_MOTION_DOT":0.00023113,"MEAN_MOTION_DDOT":0},{"OBJECT_NAME":"SPACEMOBILE-005 DEB","OBJECT_ID":"2024-163K","EPOCH":"2026-03-09T07:33:15.902496","MEAN_MOTION":15.31481997,"ECCENTRICITY":0.00072885,"INCLINATION":52.9762,"RA_OF_ASC_NODE":31.7924,"ARG_OF_PERICENTER":175.8731,"MEAN_ANOMALY":184.2329,"EPHEMERIS_TYPE":0,"CLASSIFICATION_TYPE":"U","NORAD_CAT_ID":62373,"ELEMENT_SET_NO":999,"REV_AT_EPOCH":8280,"BSTAR":0.00063853778,"MEAN_MOTION_DOT":0.00019381,"MEAN_MOTION_DDOT":0}]
